{
  "norad_id": 43231,
  "name": "O3B FM15",
  "history": [
    {
      "epoch": "2026-03-28T17:41:00.840192",
      "apogee_km": 8069.726282176455,
      "perigee_km": 8062.047261378427,
      "latitude_deg": 0.03639251515332297,
      "longitude_deg": 13.834266880294308,
      "semi_major_axis_km": 14444.02377177744,
      "eccentricity": 0.00026582,
      "inclination_deg": 0.05,
      "raan_deg": 2.8393,
      "arg_perigee_deg": 1.1715,
      "mean_anomaly_deg": 355.9867,
      "mean_motion_rev_day": 5.00115679
    },
    {
      "epoch": "2026-03-28T22:28:51.407040",
      "apogee_km": 8069.726339964495,
      "perigee_km": 8062.047896743178,
      "latitude_deg": -0.03827578028193095,
      "longitude_deg": 33.02378560020588,
      "semi_major_axis_km": 14444.024118353836,
      "eccentricity": 0.0002658,
      "inclination_deg": 0.05,
      "raan_deg": 2.8478,
      "arg_perigee_deg": 1.3696,
      "mean_anomaly_deg": 355.7802,
      "mean_motion_rev_day": 5.00115661
    }
  ]
}